STARLINK-3306           
1 50163U 21125H   22352.53756978  .00000567  00000+0  53771-4 0  9994
2 50163  53.2176 123.5618 0002742  49.3877 310.7353 15.08830567 58547
STARLINK-3298           
1 50165U 21125K   22352.47220041 -.00002192  00000+0 -11956-3 0  9992
2 50165  53.2169 143.8703 0002844  50.0936 310.0306 15.08854966 58785
STARLINK-3305           
1 50166U 21125L   22352.49520574 -.00000023  00000+0  16724-4 0  9998
2 50166  53.2172 133.7539 0003185  54.0151 306.1136 15.08828257 58878
STARLINK-3271           
1 50167U 21125M   22352.46484131 -.00000231  00000+0  36223-5 0  9992
2 50167  53.2140 143.8947 0002428  50.1208 309.9998 15.08835858 58735
STARLINK-3296           
1 50168U 21125N   22352.49151884 -.00000024  00000+0  16649-4 0  9991
2 50168  53.2174 133.7717 0003268  53.5359 306.5934 15.08843787 58882
STARLINK-3301           
1 50169U 21125P   22352.13088425  .00002525  00000+0  17669-3 0  9992
2 50169  53.2158 135.3862 0003043  38.8102 321.3108 15.08839265 58836
STARLINK-3245           
1 50170U 21125Q   22351.82176920 -.00001970  00000+0 -10566-3 0  9991
2 50170  53.2182 136.7874 0003503  52.4012 307.7298 15.08831087 58771
STARLINK-3286           
1 50171U 21125R   22352.10144471 -.00001185  00000+0 -56316-4 0  9992
2 50171  53.2166 135.5292 0002941  46.3472 313.7763 15.08833098 58826
STARLINK-3287           
1 50172U 21125S   22352.41055920  .00000255  00000+0  34161-4 0  9996
2 50172  53.2168 134.1442 0002573  47.4029 312.7180 15.08840728 58901
STARLINK-3289           
1 50173U 21125T   22352.50443671  .00001239  00000+0  95914-4 0  9997
2 50173  53.2154 123.7260 0001815  48.5481 311.5667 15.08843963 59037
STARLINK-3292           
1 50174U 21125U   22352.13456163  .00000956  00000+0  78209-4 0  9990
2 50174  53.2143 135.3807 0002695  53.1062 307.0177 15.08841284 58877
STARLINK-3291           
1 50175U 21125V   22352.42160601  .00001286  00000+0  98934-4 0  9996
2 50175  53.2172 134.0913 0002678  50.1672 309.9555 15.08828478 58870
STARLINK-3293           
1 50176U 21125W   22352.46944064  .00001049  00000+0  84037-4 0  9990
2 50176  53.2141 133.8753 0002890  25.0377 335.0755 15.08829481 58928
STARLINK-3282           
1 50177U 21125X   22352.41423807  .00000510  00000+0  50173-4 0  9999
2 50177  53.2174 134.1273 0003139  58.2653 301.8644 15.08839877 58870
STARLINK-3284           
1 50178U 21125Y   22352.50623700  .00000051  00000+0  21351-4 0  9990
2 50178  53.2157 133.6941 0002890  52.1677 307.9576 15.08839306 58924
STARLINK-3283           
1 50179U 21125Z   22352.14188429 -.00007412  00000+0 -44805-3 0  9993
2 50179  53.2151 135.3481 0003158  53.3685 306.7597 15.08836420 58831
STARLINK-3265           
1 50180U 21125AA  22352.39216412  .00003981  00000+0  26803-3 0  9999
2 50180  53.2152 134.2235 0002864  51.1857 308.9391 15.08846704 58910
STARLINK-3285           
1 50181U 21125AB  22352.45104079  .00000383  00000+0  42186-4 0  9998
2 50181  53.2155 133.9642 0003162  53.0835 307.0446 15.08836647 58883
STARLINK-3277           
1 50182U 21125AC  22352.50992196 -.00000293  00000+0 -28601-6 0  9990
2 50182  53.2155 133.6942 0002700  32.1098 328.0058 15.08844637 58925
STARLINK-3281           
1 50183U 21125AD  22352.51360105  .00000917  00000+0  75708-4 0  9990
2 50183  53.2147 133.6814 0002602  47.5799 312.5413 15.08841824 58933
STARLINK-3279           
1 50185U 21125AF  22351.72609285 -.00000486  00000+0 -12394-4 0  9994
2 50185  53.2181 137.2136 0003977  60.0852 300.0534 15.08827565 58770
STARLINK-3274           
1 50186U 21125AG  22352.40229848  .00001207  00000+0  93957-4 0  9998
2 50186  53.2172 144.1782 0003000  52.7359 307.3906 15.08837283 58728
STARLINK-3272           
1 50187U 21125AH  22352.49611841  .00000833  00000+0  70419-4 0  9998
2 50187  53.2170 123.7434 0001830  47.3923 312.7223 15.08836103 59004
STARLINK-3275           
1 50188U 21125AJ  22351.70491638  .00000822  00000+0  69770-4 0  9998
2 50188  53.2170 127.2901 0002063  48.2876 311.8292 15.08844599 58945
STARLINK-3276           
1 50189U 21125AK  22352.10513273  .00001381  00000+0  10492-3 0  9991
2 50189  53.2144 135.5157 0002954  52.0457 308.0802 15.08831390 58860
STARLINK-3268           
1 50190U 21125AL  22352.48508425  .00002689  00000+0  18696-3 0  9993
2 50190  53.2152 123.8063 0003250  59.4947 300.6366 15.08844484 59011
STARLINK-3273           
1 50191U 21125AM  22352.49428663  .00001539  00000+0  11482-3 0  9999
2 50191  53.2172 143.7543 0003476  51.9493 308.1813 15.08839544 58730
STARLINK-3259           
1 50192U 21125AN  22352.08396403 -.00000743  00000+0 -28562-4 0  9997
2 50192  53.2183 125.6083 0003128  53.8027 306.3254 15.08836364 58959
STARLINK-3261           
1 50193U 21125AP  22352.35996978 -.00000811  00000+0 -32837-4 0  9997
2 50193  53.2182 124.3715 0003038  54.4387 305.6888 15.08831199 59040
STARLINK-3269           
1 50194U 21125AQ  22352.41148505 -.00000304  00000+0 -94419-6 0  9993
2 50194  53.2184 124.1378 0002757  46.1794 313.9426 15.08835587 59059
STARLINK-3266           
1 50195U 21125AR  22352.42252225  .00000976  00000+0  79432-4 0  9999
2 50195  53.2154 124.0876 0003090  27.2858 332.8296 15.08843999 59007
STARLINK-3263           
1 50196U 21125AS  22352.40412558  .00000480  00000+0  48308-4 0  9993
2 50196  53.2152 124.1666 0003056  56.5205 303.6079 15.08831425 59003
STARLINK-3267           
1 50197U 21125AT  22352.47405023  .00008627  00000+0  55936-3 0  9995
2 50197  53.2155 123.8606 0002674  47.3370 312.7847 15.08846520 59065
STARLINK-3264           
1 50198U 21125AU  22351.79691569  .00000150  00000+0  27564-4 0  9992
2 50198  53.2162 126.8906 0002251  49.2157 310.9030 15.08838098 58913
STARLINK-3270           
1 50199U 21125AV  22352.50714609 -.00005748  00000+0 -34293-3 0  9990
2 50199  53.2174 123.6992 0003252  50.8884 309.2397 15.08871619 59019
STARLINK-3235           
1 50200U 21125AW  22352.46667935 -.00000887  00000+0 -37594-4 0  9994
2 50200  53.2149 123.8896 0003724  55.4161 304.7182 15.08837645 59026
STARLINK-3255           
1 50201U 21125AX  22352.52187909  .00001011  00000+0  81671-4 0  9993
2 50201  53.2168 123.6474 0003424  46.7231 313.4047 15.08842072 59023
STARLINK-3256           
1 50202U 21125AY  22352.10605483  .00005727  00000+0  37757-3 0  9993
2 50202  53.2143 125.4916 0003088  60.1016 300.0282 15.08843929 58951
STARLINK-3257           
1 50203U 21125AZ  22352.33053682 -.00001003  00000+0 -44855-4 0  9990
2 50203  53.2160 124.5062 0003615  58.3756 301.7589 15.08835287 59057
STARLINK-3254           
1 50204U 21125BA  22352.51083949  .00002390  00000+0  16817-3 0  9994
2 50204  53.2146 123.6926 0002894  49.5280 310.5964 15.08850523 59070
STARLINK-3260           
1 50205U 21125BB  22352.38579045 -.00004158  00000+0 -24342-3 0  9995
2 50205  53.2190  94.2536 0002720  42.0903 318.0298 15.08811228 59429
STARLINK-3258           
1 50206U 21125BC  22352.31580406 -.00000693  00000+0 -25387-4 0  9993
2 50206  53.2164 124.5737 0003563  53.9435 306.1887 15.08836684 56914
STARLINK-3262           
1 50207U 21125BD  22351.85580567 -.00001581  00000+0 -81204-4 0  9997
2 50207  53.2136 126.6310 0003522  51.8702 308.2607 15.08838484 56916
STARLINK-3321           
1 50803U 22001A   22352.43631425  .00000745  00000+0  64946-4 0  9991
2 50803  53.2183  54.0222 0002591  28.3899 331.7234 15.08840385 52687
STARLINK-3323           
1 50804U 22001B   22352.53660667 -.00000605  00000+0 -19883-4 0  9990
2 50804  53.2168  43.5831 0002443  28.7809 331.3318 15.08834129 52836
STARLINK-3333           
1 50805U 22001C   22352.53292389 -.00000888  00000+0 -37670-4 0  9990
2 50805  53.2166  43.5977 0002418  32.2497 327.8643 15.08834876 52831
STARLINK-3335           
1 50806U 22001D   22352.52925284  .00002657  00000+0  18499-3 0  9998
2 50806  53.2189  43.5914 0002348  28.4943 331.6177 15.08837679 52832
STARLINK-3353           
1 50807U 22001E   22352.51453454  .00005182  00000+0  34355-3 0  9998
2 50807  53.2164  43.6792 0002955  25.7670 334.3469 15.08832186 52834
STARLINK-3355           
1 50808U 22001F   22352.45564131  .00001118  00000+0  88326-4 0  9990
2 50808  53.2182  43.9351 0002501  30.7253 329.3886 15.08842388 52820
STARLINK-3232           
1 50809U 22001G   22352.52556589 -.00001026  00000+0 -46338-4 0  9994
2 50809  53.2184  43.6244 0002759  25.1938 334.9189 15.08834643 52838
STARLINK-3348           
1 50810U 22001H   22352.45197396  .00001231  00000+0  95433-4 0  9991
2 50810  53.2153  43.9580 0001954  45.5553 314.5598 15.08839964 52825
STARLINK-3347           
1 50811U 22001J   22352.37835936 -.00000264  00000+0  15201-5 0  9994
2 50811  53.2166  44.2845 0002702  29.7863 330.3282 15.08831111 52819
STARLINK-3338           
1 50812U 22001K   22352.54123846  .00000316  00000+0  37953-4 0  9998
2 50812  53.2187  43.5389 0002464  31.1332 328.9805 15.08833290 52837
STARLINK-3349           
1 50813U 22001L   22352.50812259 -.00000926  00000+0 -40051-4 0  9990
2 50813  53.2164  43.7038 0002335  33.3567 326.7572 15.08833376 52839
STARLINK-3324           
1 50814U 22001M   22352.55408328 -.00001408  00000+0 -70391-4 0  9990
2 50814  53.2176  53.4998 0002648  25.9449 334.1675 15.08830765 52701
STARLINK-3234           
1 50815U 22001N   22352.49888763  .00002757  00000+0  19126-3 0  9993
2 50815  53.2175  53.7526 0002472  31.2241 328.8897 15.08837332 52697
STARLINK-3342           
1 50816U 22001P   22352.46944626 -.00000769  00000+0 -30213-4 0  9996
2 50816  53.2167  53.8755 0002633  26.6468 333.4659 15.08835097 52685
STARLINK-3341           
1 50817U 22001Q   22352.49520205  .00000597  00000+0  55636-4 0  9996
2 50817  53.2180  53.7680 0002406  31.9667 328.1471 15.08835708 52698
STARLINK-3336           
1 50818U 22001R   22352.47681313  .00007435  00000+0  48471-3 0  9999
2 50818  53.2167  53.8247 0002330  29.4270 330.6853 15.08842471 52688
STARLINK-3327           
1 50819U 22001S   22352.55040233  .00000018  00000+0  19246-4 0  9998
2 50819  53.2183  53.5164 0002508  21.6445 338.4653 15.08835285 52709
